STARLINK-31467          
1 59235U 24049E   26086.84865406 -.00002268  00000+0 -72979-4 0  9993
2 59235  43.0031  40.9528 0000741 294.0860  65.9914 15.27563471115187
STARLINK-31444          
1 59236U 24049F   26086.39720618  .00006505  00000+0  23858-3 0  9996
2 59236  43.0099 333.9722 0002184 272.7696  87.2906 15.28554848115880
STARLINK-31505          
1 59237U 24049G   26086.59352808 -.00000543  00000+0 -10209-4 0  9996
2 59237  43.0028  42.4914 0000669 310.7026  49.3767 15.27570125115142
STARLINK-31494          
1 59238U 24049H   26086.57167618 -.00001401  00000+0 -41402-4 0  9991
2 59238  43.0037  42.3151 0001156 272.5051  87.5669 15.27580370115148
STARLINK-31303          
1 59239U 24049J   26086.55899368 -.00002639  00000+0 -86428-4 0  9995
2 59239  43.0024  31.7714 0000372 317.0252  43.0570 15.27583804115265
STARLINK-31408          
1 59240U 24049K   26086.28457663  .00001543  00000+0  65607-4 0  9992
2 59240  43.0034  44.4581 0001273 274.8579  85.2127 15.27572565115093
STARLINK-31427          
1 59241U 24049L   26086.28843046 -.00000244  00000+0  65168-6 0  9999
2 59241  43.0027  44.4583 0001129 276.8459  83.2264 15.27570777115090
STARLINK-31423          
1 59242U 24049M   26086.28201110  .00003599  00000+0  14032-3 0  9996
2 59242  43.0007  44.4318 0000862 263.9966  96.0788 15.27562858115092
STARLINK-31433          
1 59243U 24049N   26086.58324179 -.00000452  00000+0 -68872-5 0  9991
2 59243  43.0049  42.3986 0001245 278.8773  81.1938 15.27575129115147
STARLINK-31285          
1 59244U 24049P   26086.56782360 -.00000535  00000+0 -99156-5 0  9991
2 59244  43.0033  42.2822 0000686 278.9412  81.1362 15.27574307115135
STARLINK-31268          
1 59245U 24049Q   26086.83335647  .00350705  53216-4  11172-2 0  9990
2 59245  42.9810  10.9945 0024454 203.4032 133.1280 15.89813478  6000
STARLINK-31284          
1 59246U 24049R   26086.84093478 -.00001080  00000+0 -29730-4 0  9995
2 59246  43.0029  40.8942 0001022 271.4819  88.5915 15.27570449115175
STARLINK-31424          
1 59247U 24049S   26086.58886874 -.00000440  00000+0 -64819-5 0  9994
2 59247  43.0032  38.9782 0000918 277.7462  82.3285 15.27573065115175
STARLINK-31405          
1 59248U 24049T   26086.60122987  .00000205  00000+0  16989-4 0  9997
2 59248  43.0050  42.5316 0001115 283.2122  76.8605 15.27575746115133
STARLINK-31426          
1 59249U 24049U   26086.21276517 -.00000515  00000+0 -91744-5 0  9993
2 59249  43.0053  44.7681 0001027 253.5034 106.5705 15.27583919115076
STARLINK-31407          
1 59250U 24049V   26086.19865499 -.00000132  00000+0  47288-5 0  9993
2 59250  43.0017  33.4245 0000978 286.1510  73.9234 15.27574651115206
STARLINK-31393          
1 59252U 24049X   26086.86327532 -.00001981  00000+0 -62443-4 0  9993
2 59252  43.0006  26.3415 0000166  27.0236 333.0624 15.27602445115354
