[{"OBJECT_NAME":"STARLINK-31467","OBJECT_ID":"2024-049E","EPOCH":"2026-03-27T20:22:03.710784","MEAN_MOTION":15.27563471,"ECCENTRICITY":7.41e-5,"INCLINATION":43.0031,"RA_OF_ASC_NODE":40.9528,"ARG_OF_PERICENTER":294.086,"MEAN_ANOMALY":65.9914,"EPHEMERIS_TYPE":0,"CLASSIFICATION_TYPE":"U","NORAD_CAT_ID":59235,"ELEMENT_SET_NO":999,"REV_AT_EPOCH":11518,"BSTAR":-7.2979e-5,"MEAN_MOTION_DOT":-2.268e-5,"MEAN_MOTION_DDOT":0},{"OBJECT_NAME":"STARLINK-31444","OBJECT_ID":"2024-049F","EPOCH":"2026-03-27T09:31:58.613952","MEAN_MOTION":15.28554848,"ECCENTRICITY":0.0002184,"INCLINATION":43.0099,"RA_OF_ASC_NODE":333.9722,"ARG_OF_PERICENTER":272.7696,"MEAN_ANOMALY":87.2906,"EPHEMERIS_TYPE":0,"CLASSIFICATION_TYPE":"U","NORAD_CAT_ID":59236,"ELEMENT_SET_NO":999,"REV_AT_EPOCH":11588,"BSTAR":0.00023858,"MEAN_MOTION_DOT":6.505e-5,"MEAN_MOTION_DDOT":0},{"OBJECT_NAME":"STARLINK-31505","OBJECT_ID":"2024-049G","EPOCH":"2026-03-27T14:14:40.826112","MEAN_MOTION":15.27570125,"ECCENTRICITY":6.69e-5,"INCLINATION":43.0028,"RA_OF_ASC_NODE":42.4914,"ARG_OF_PERICENTER":310.7026,"MEAN_ANOMALY":49.3767,"EPHEMERIS_TYPE":0,"CLASSIFICATION_TYPE":"U","NORAD_CAT_ID":59237,"ELEMENT_SET_NO":999,"REV_AT_EPOCH":11514,"BSTAR":-1.0209e-5,"MEAN_MOTION_DOT":-5.43e-6,"MEAN_MOTION_DDOT":0},{"OBJECT_NAME":"STARLINK-31494","OBJECT_ID":"2024-049H","EPOCH":"2026-03-27T13:43:12.821952","MEAN_MOTION":15.2758037,"ECCENTRICITY":0.0001156,"INCLINATION":43.0037,"RA_OF_ASC_NODE":42.3151,"ARG_OF_PERICENTER":272.5051,"MEAN_ANOMALY":87.5669,"EPHEMERIS_TYPE":0,"CLASSIFICATION_TYPE":"U","NORAD_CAT_ID":59238,"ELEMENT_SET_NO":999,"REV_AT_EPOCH":11514,"BSTAR":-4.1402e-5,"MEAN_MOTION_DOT":-1.401e-5,"MEAN_MOTION_DDOT":0},{"OBJECT_NAME":"STARLINK-31303","OBJECT_ID":"2024-049J","EPOCH":"2026-03-27T13:24:57.053952","MEAN_MOTION":15.27583804,"ECCENTRICITY":3.72e-5,"INCLINATION":43.0024,"RA_OF_ASC_NODE":31.7714,"ARG_OF_PERICENTER":317.0252,"MEAN_ANOMALY":43.057,"EPHEMERIS_TYPE":0,"CLASSIFICATION_TYPE":"U","NORAD_CAT_ID":59239,"ELEMENT_SET_NO":999,"REV_AT_EPOCH":11526,"BSTAR":-8.6428e-5,"MEAN_MOTION_DOT":-2.639e-5,"MEAN_MOTION_DDOT":0},{"OBJECT_NAME":"STARLINK-31408","OBJECT_ID":"2024-049K","EPOCH":"2026-03-27T06:49:47.420832","MEAN_MOTION":15.27572565,"ECCENTRICITY":0.0001273,"INCLINATION":43.0034,"RA_OF_ASC_NODE":44.4581,"ARG_OF_PERICENTER":274.8579,"MEAN_ANOMALY":85.2127,"EPHEMERIS_TYPE":0,"CLASSIFICATION_TYPE":"U","NORAD_CAT_ID":59240,"ELEMENT_SET_NO":999,"REV_AT_EPOCH":11509,"BSTAR":6.5607e-5,"MEAN_MOTION_DOT":1.543e-5,"MEAN_MOTION_DDOT":0},{"OBJECT_NAME":"STARLINK-31427","OBJECT_ID":"2024-049L","EPOCH":"2026-03-27T06:55:20.391744","MEAN_MOTION":15.27570777,"ECCENTRICITY":0.0001129,"INCLINATION":43.0027,"RA_OF_ASC_NODE":44.4583,"ARG_OF_PERICENTER":276.8459,"MEAN_ANOMALY":83.2264,"EPHEMERIS_TYPE":0,"CLASSIFICATION_TYPE":"U","NORAD_CAT_ID":59241,"ELEMENT_SET_NO":999,"REV_AT_EPOCH":11509,"BSTAR":6.5168e-7,"MEAN_MOTION_DOT":-2.44e-6,"MEAN_MOTION_DDOT":0},{"OBJECT_NAME":"STARLINK-31423","OBJECT_ID":"2024-049M","EPOCH":"2026-03-27T06:46:05.759040","MEAN_MOTION":15.27562858,"ECCENTRICITY":8.62e-5,"INCLINATION":43.0007,"RA_OF_ASC_NODE":44.4318,"ARG_OF_PERICENTER":263.9966,"MEAN_ANOMALY":96.0788,"EPHEMERIS_TYPE":0,"CLASSIFICATION_TYPE":"U","NORAD_CAT_ID":59242,"ELEMENT_SET_NO":999,"REV_AT_EPOCH":11509,"BSTAR":0.00014032,"MEAN_MOTION_DOT":3.599e-5,"MEAN_MOTION_DDOT":0},{"OBJECT_NAME":"STARLINK-31433","OBJECT_ID":"2024-049N","EPOCH":"2026-03-27T13:59:52.090656","MEAN_MOTION":15.27575129,"ECCENTRICITY":0.0001245,"INCLINATION":43.0049,"RA_OF_ASC_NODE":42.3986,"ARG_OF_PERICENTER":278.8773,"MEAN_ANOMALY":81.1938,"EPHEMERIS_TYPE":0,"CLASSIFICATION_TYPE":"U","NORAD_CAT_ID":59243,"ELEMENT_SET_NO":999,"REV_AT_EPOCH":11514,"BSTAR":-6.8872e-6,"MEAN_MOTION_DOT":-4.52e-6,"MEAN_MOTION_DDOT":0},{"OBJECT_NAME":"STARLINK-31285","OBJECT_ID":"2024-049P","EPOCH":"2026-03-27T13:37:39.959040","MEAN_MOTION":15.27574307,"ECCENTRICITY":6.86e-5,"INCLINATION":43.0033,"RA_OF_ASC_NODE":42.2822,"ARG_OF_PERICENTER":278.9412,"MEAN_ANOMALY":81.1362,"EPHEMERIS_TYPE":0,"CLASSIFICATION_TYPE":"U","NORAD_CAT_ID":59244,"ELEMENT_SET_NO":999,"REV_AT_EPOCH":11513,"BSTAR":-9.9156e-6,"MEAN_MOTION_DOT":-5.35e-6,"MEAN_MOTION_DDOT":0},{"OBJECT_NAME":"STARLINK-31268","OBJECT_ID":"2024-049Q","EPOCH":"2026-03-27T20:00:01.999008","MEAN_MOTION":15.89813478,"ECCENTRICITY":0.0024454,"INCLINATION":42.981,"RA_OF_ASC_NODE":10.9945,"ARG_OF_PERICENTER":203.4032,"MEAN_ANOMALY":133.128,"EPHEMERIS_TYPE":0,"CLASSIFICATION_TYPE":"U","NORAD_CAT_ID":59245,"ELEMENT_SET_NO":999,"REV_AT_EPOCH":600,"BSTAR":0.0011172,"MEAN_MOTION_DOT":0.00350705,"MEAN_MOTION_DDOT":5.3216e-5},{"OBJECT_NAME":"STARLINK-31284","OBJECT_ID":"2024-049R","EPOCH":"2026-03-27T20:10:56.764992","MEAN_MOTION":15.27570449,"ECCENTRICITY":0.0001022,"INCLINATION":43.0029,"RA_OF_ASC_NODE":40.8942,"ARG_OF_PERICENTER":271.4819,"MEAN_ANOMALY":88.5915,"EPHEMERIS_TYPE":0,"CLASSIFICATION_TYPE":"U","NORAD_CAT_ID":59246,"ELEMENT_SET_NO":999,"REV_AT_EPOCH":11517,"BSTAR":-2.973e-5,"MEAN_MOTION_DOT":-1.08e-5,"MEAN_MOTION_DDOT":0},{"OBJECT_NAME":"STARLINK-31424","OBJECT_ID":"2024-049S","EPOCH":"2026-03-27T14:07:58.259136","MEAN_MOTION":15.27573065,"ECCENTRICITY":9.18e-5,"INCLINATION":43.0032,"RA_OF_ASC_NODE":38.9782,"ARG_OF_PERICENTER":277.7462,"MEAN_ANOMALY":82.3285,"EPHEMERIS_TYPE":0,"CLASSIFICATION_TYPE":"U","NORAD_CAT_ID":59247,"ELEMENT_SET_NO":999,"REV_AT_EPOCH":11517,"BSTAR":-6.4819e-6,"MEAN_MOTION_DOT":-4.4e-6,"MEAN_MOTION_DDOT":0},{"OBJECT_NAME":"STARLINK-31405","OBJECT_ID":"2024-049T","EPOCH":"2026-03-27T14:25:46.260768","MEAN_MOTION":15.27575746,"ECCENTRICITY":0.0001115,"INCLINATION":43.005,"RA_OF_ASC_NODE":42.5316,"ARG_OF_PERICENTER":283.2122,"MEAN_ANOMALY":76.8605,"EPHEMERIS_TYPE":0,"CLASSIFICATION_TYPE":"U","NORAD_CAT_ID":59248,"ELEMENT_SET_NO":999,"REV_AT_EPOCH":11513,"BSTAR":1.6989e-5,"MEAN_MOTION_DOT":2.05e-6,"MEAN_MOTION_DDOT":0},{"OBJECT_NAME":"STARLINK-31426","OBJECT_ID":"2024-049U","EPOCH":"2026-03-27T05:06:22.910688","MEAN_MOTION":15.27583919,"ECCENTRICITY":0.0001027,"INCLINATION":43.0053,"RA_OF_ASC_NODE":44.7681,"ARG_OF_PERICENTER":253.5034,"MEAN_ANOMALY":106.5705,"EPHEMERIS_TYPE":0,"CLASSIFICATION_TYPE":"U","NORAD_CAT_ID":59249,"ELEMENT_SET_NO":999,"REV_AT_EPOCH":11507,"BSTAR":-9.1744e-6,"MEAN_MOTION_DOT":-5.15e-6,"MEAN_MOTION_DDOT":0},{"OBJECT_NAME":"STARLINK-31407","OBJECT_ID":"2024-049V","EPOCH":"2026-03-27T04:46:03.791136","MEAN_MOTION":15.27574651,"ECCENTRICITY":9.785e-5,"INCLINATION":43.0017,"RA_OF_ASC_NODE":33.4245,"ARG_OF_PERICENTER":286.151,"MEAN_ANOMALY":73.9234,"EPHEMERIS_TYPE":0,"CLASSIFICATION_TYPE":"U","NORAD_CAT_ID":59250,"ELEMENT_SET_NO":999,"REV_AT_EPOCH":11520,"BSTAR":4.728806e-6,"MEAN_MOTION_DOT":-1.32e-6,"MEAN_MOTION_DDOT":0},{"OBJECT_NAME":"STARLINK-31393","OBJECT_ID":"2024-049X","EPOCH":"2026-03-27T20:43:06.987648","MEAN_MOTION":15.27602445,"ECCENTRICITY":1.66e-5,"INCLINATION":43.0006,"RA_OF_ASC_NODE":26.3415,"ARG_OF_PERICENTER":27.0236,"MEAN_ANOMALY":333.0624,"EPHEMERIS_TYPE":0,"CLASSIFICATION_TYPE":"U","NORAD_CAT_ID":59252,"ELEMENT_SET_NO":999,"REV_AT_EPOCH":11535,"BSTAR":-6.2443e-5,"MEAN_MOTION_DOT":-1.981e-5,"MEAN_MOTION_DDOT":0}]
